[{"OBJECT_NAME":"ONEWEB-0289","OBJECT_ID":"2021-075E","EPOCH":"2026-03-09T21:08:22.168032","MEAN_MOTION":13.17648395,"ECCENTRICITY":0.00022754,"INCLINATION":87.9156,"RA_OF_ASC_NODE":25.5983,"ARG_OF_PERICENTER":82.3939,"MEAN_ANOMALY":277.7451,"EPHEMERIS_TYPE":0,"CLASSIFICATION_TYPE":"U","NORAD_CAT_ID":49079,"ELEMENT_SET_NO":999,"REV_AT_EPOCH":22112,"BSTAR":0.00020784061,"MEAN_MOTION_DOT":9.4e-7,"MEAN_MOTION_DDOT":0},{"OBJECT_NAME":"SL-8 R\/B","OBJECT_ID":"1978-122B","EPOCH":"2026-03-09T22:08:45.907584","MEAN_MOTION":13.22164707,"ECCENTRICITY":0.00243144,"INCLINATION":82.9677,"RA_OF_ASC_NODE":244.6432,"ARG_OF_PERICENTER":279.4293,"MEAN_ANOMALY":190.5586,"EPHEMERIS_TYPE":0,"CLASSIFICATION_TYPE":"U","NORAD_CAT_ID":11170,"ELEMENT_SET_NO":999,"REV_AT_EPOCH":25975,"BSTAR":0.00013896554,"MEAN_MOTION_DOT":7.1e-7,"MEAN_MOTION_DDOT":0}]
